{ "_id" : { "$oid" : "5865b00ea86f62babb017b8c" }, "external_id" : "03bae8b1-64a6-4471-8438-c21a1f393a01", "neighborhood" : "Bay Ridge", "street_address" : "1113 Bay Ridge Avenue", "city" : "Brooklyn", "state" : "NY", "zip" : "11209", "phone" : "718-222-2445", "live" : true }
{ "_id" : { "$oid" : "5865b00ea86f62babb017b8d" }, "external_id" : "03bae8b1-64a6-4471-8438-c21a1f393a02", "neighborhood" : "Sunset Park", "street_address" : "115 Sunset Park Avenue", "city" : "Brooklyn", "state" : "NY", "zip" : "11235", "phone" : "718-987-3445", "live" : true }
{ "_id" : { "$oid" : "5865b00ea86f62babb017b8e" }, "external_id" : "03bae8b1-64a6-4471-8438-c21a1f393a03", "neighborhood" : "Dyker Heights", "street_address" : "2447 S16th Avenue", "city" : "Brooklyn", "state" : "NY", "zip" : "11256", "phone" : "718-655-3245", "live" : true }
{ "_id" : { "$oid" : "5865b00ea86f62babb017b8f" }, "external_id" : "03bae8b1-64a6-4471-8438-c21a1f393a04", "neighborhood" : "Park Slope", "street_address" : "33 7th Avenue", "city" : "Brooklyn", "state" : "NY", "zip" : "11321", "phone" : "718-686-3432", "live" : true }
{ "_id" : { "$oid" : "5865b00ea86f62babb017b90" }, "external_id" : "03bae8b1-64a6-4471-8438-c21a1f393a05", "neighborhood" : "Carroll Gardens", "street_address" : "232 Carroll Gardens Avenue", "city" : "Brooklyn", "state" : "NY", "zip" : "11883", "phone" : "718-112-7666", "live" : true }
{ "_id" : { "$oid" : "5865b00ea86f62babb017b91" }, "external_id" : "03bae8b1-64a6-4471-8438-c21a1f393a06", "neighborhood" : "Greenpoint", "street_address" : "99 Greenpoint Avenue", "city" : "Brooklyn", "state" : "NY", "zip" : "11313", "phone" : "718-239-1121", "live" : true }
{ "_id" : { "$oid" : "5865b00ea86f62babb017b92" }, "external_id" : "03bae8b1-64a6-4471-8438-c21a1f393a07", "neighborhood" : "Williamsburg", "street_address" : "556 Boerum Street", "city" : "Brooklyn", "state" : "NY", "zip" : "11841", "phone" : "718-877-2377", "live" : true }
{ "_id" : { "$oid" : "5865b00ea86f62babb017b93" }, "external_id" : "03bae8b1-64a6-4471-8438-c21a1f393a08", "neighborhood" : "College Point", "street_address" : "77 115th Street", "city" : "College Point", "state" : "NY", "zip" : "11356", "phone" : "718-987-2237", "live" : true }
{ "_id" : { "$oid" : "5865b00ea86f62babb017b94" }, "external_id" : "03bae8b1-64a6-4471-8438-c21a1f393a09", "neighborhood" : "Flushing", "street_address" : "344 125th Street", "city" : "Flushing", "state" : "NY", "zip" : "11359", "phone" : "718-232-2287", "live" : true }
{ "_id" : { "$oid" : "5865b00ea86f62babb017b95" }, "external_id" : "03bae8b1-64a6-4471-8438-c21a1f393a10", "neighborhood" : "Whitestone", "street_address" : "77 23rd Avenue", "city" : "Whitestone", "state" : "NY", "zip" : "11452", "phone" : "718-667-2388", "live" : true }
{ "_id" : { "$oid" : "5865b00ea86f62babb017b96" }, "external_id" : "03bae8b1-64a6-4471-8438-c21a1f393a11", "neighborhood" : "Bayside", "street_address" : "888 219th Street", "city" : "Flushing", "state" : "NY", "zip" : "11361", "phone" : "718-329-3345", "live" : true }
{ "_id" : { "$oid" : "5865b00ea86f62babb017b97" }, "external_id" : "03bae8b1-64a6-4471-8438-c21a1f393a12", "neighborhood" : "Floral Park", "street_address" : "3 Rose Avenue", "city" : "Floral Park", "state" : "NY", "zip" : "11001", "phone" : "718-231-3277", "live" : true }
{ "_id" : { "$oid" : "5865b00ea86f62babb017b98" }, "external_id" : "03bae8b1-64a6-4471-8438-c21a1f393a13", "neighborhood" : "Jamaica", "street_address" : "232 107th Avenue", "city" : "Jamaica", "state" : "NY", "zip" : "11433", "phone" : "718-232-3377", "live" : true }
{ "_id" : { "$oid" : "5865b00ea86f62babb017b99" }, "external_id" : "03bae8b1-64a6-4471-8438-c21a1f393a14", "neighborhood" : "Forest Hills", "street_address" : "44 Groton Avenue", "city" : "Flushing", "state" : "NY", "zip" : "11375", "phone" : "718-988-8866", "live" : true }
{ "_id" : { "$oid" : "5865b00ea86f62babb017b9a" }, "external_id" : "03bae8b1-64a6-4471-8438-c21a1f393a15", "neighborhood" : "Rego Park", "street_address" : "233 Wetherole Street", "city" : "Flushing", "state" : "NY", "zip" : "11374", "phone" : "718-665-3433", "live" : true }
{ "_id" : { "$oid" : "5865b00ea86f62babb017b9b" }, "external_id" : "03bae8b1-64a6-4471-8438-c21a1f393a16", "neighborhood" : "Tribeca", "street_address" : "51 Hudson Street", "city" : "New York", "state" : "NY", "zip" : "10013", "phone" : "212-355-2244", "live" : true }
{ "_id" : { "$oid" : "5865b00ea86f62babb017b9c" }, "external_id" : "03bae8b1-64a6-4471-8438-c21a1f393a17", "neighborhood" : "Hell's Kitchen", "street_address" : "449 West 50th Street", "city" : "New York", "state" : "NY", "zip" : "10019", "phone" : "212-814-9365", "live" : true }
{ "_id" : { "$oid" : "5865b00ea86f62babb017b9d" }, "external_id" : "03bae8b1-64a6-4471-8438-c21a1f393a18", "neighborhood" : "Upper East Side", "street_address" : "223 East 75th Street", "city" : "New York", "state" : "NY", "zip" : "10021", "phone" : "212-774-2343", "live" : true }
{ "_id" : { "$oid" : "5865b00ea86f62babb017b9e" }, "external_id" : "03bae8b1-64a6-4471-8438-c21a1f393a19", "neighborhood" : "Upper West Side", "street_address" : "334 West 70th Street", "city" : "New York", "state" : "NY", "zip" : "10023", "phone" : "212-442-2442", "live" : true }
{ "_id" : { "$oid" : "5865b00ea86f62babb017b9f" }, "external_id" : "03bae8b1-64a6-4471-8438-c21a1f393a20", "neighborhood" : "Harlem", "street_address" : "2244 Adam Clayton Powell Jr Boulevard", "city" : "New York", "state" : "NY", "zip" : "10027", "phone" : "212-785-7543", "live" : true }
{ "_id" : { "$oid" : "5865b00ea86f62babb017ba0" }, "external_id" : "03bae8b1-64a6-4471-8438-c21a1f393a21", "neighborhood" : "Fordham Heights", "street_address" : "2255 Webster Avenue", "city" : "Bronx", "state" : "NY", "zip" : "10457", "phone" : "718-445-2312", "live" : true }
{ "_id" : { "$oid" : "5865b00ea86f62babb017ba1" }, "external_id" : "03bae8b1-64a6-4471-8438-c21a1f393a22", "neighborhood" : "Allerton", "street_address" : "2455 Bronxwood Avenue", "city" : "Bronx", "state" : "NY", "zip" : "10455", "phone" : "718-322-3366", "live" : true }
{ "_id" : { "$oid" : "5865b00ea86f62babb017ba2" }, "external_id" : "03bae8b1-64a6-4471-8438-c21a1f393a23", "neighborhood" : "Bulls Head", "street_address" : "99 Renee Place", "city" : "Staten Island", "state" : "NY", "zip" : "10314", "phone" : "718-238-8899", "live" : true }
